
# Worst residual: 16.00 km
# MJD 61013.000000 (2025 Dec  4  0:00)
1992-044A = Geotail = NORAD 22049
1 22049U 92044A   25338.49919926  .00000000  00000-0  00000-0 0 25488
2 22049 045.0696 354.9963 5942034 269.7807 230.3077 00.19275995    03

# Worst residual: 32.61 km
# MJD 61014.000000 (2025 Dec  5  0:00)
1992-044A = Geotail = NORAD 22049
1 22049U 92044A   25339.49919926  .00000000  00000-0  00000-0 0 25489
2 22049 045.0923 354.8898 5961780 269.7910 300.0515 00.19243897    04

# Worst residual: 82.73 km
# MJD 61015.000000 (2025 Dec  6  0:00)
1992-044A = Geotail = NORAD 22049
1 22049U 92044A   25340.49919926  .00000000  00000-0  00000-0 0 25481
2 22049 045.1371 354.8748 5995344 270.0573 009.2708 00.19122945    01

# Worst residual: 23.91 km
# MJD 61016.000000 (2025 Dec  7  0:00)
1992-044A = Geotail = NORAD 22049
1 22049U 92044A   25341.49919926  .00000000  00000-0  00000-0 0 25482
2 22049 045.0963 354.8392 5959331 270.1382 078.8708 00.19280013    00

# Worst residual: 8.28 km
# MJD 61017.000000 (2025 Dec  8  0:00)
1992-044A = Geotail = NORAD 22049
1 22049U 92044A   25342.49919926  .00000000  00000-0  00000-0 0 25483
2 22049 045.0947 354.7972 5951785 270.0143 148.8375 00.19324545    01

# Worst residual: 9.94 km
# MJD 61018.000000 (2025 Dec  9  0:00)
1992-044A = Geotail = NORAD 22049
1 22049U 92044A   25343.49919926  .00000000  00000-0  00000-0 0 25484
2 22049 045.0950 354.7330 5940127 270.0163 218.4865 00.19304480    07

# Worst residual: 15.28 km
# MJD 61019.000000 (2025 Dec 10  0:00)
1992-044A = Geotail = NORAD 22049
1 22049U 92044A   25344.49919926  .00000000  00000-0  00000-0 0 25485
2 22049 045.1070 354.6539 5921673 269.9847 287.8665 00.19270211    04

# Worst residual: 12.54 km
# MJD 61020.000000 (2025 Dec 11  0:00)
1992-044A = Geotail = NORAD 22049
1 22049U 92044A   25345.49919926  .00000000  00000-0  00000-0 0 25486
2 22049 045.1318 354.6072 5914176 269.9757 357.1388 00.19272612    01

# Worst residual: 2.36 km
# MJD 61021.000000 (2025 Dec 12  0:00)
1992-044A = Geotail = NORAD 22049
1 22049U 92044A   25346.49919926  .00000000  00000-0  00000-0 0 25487
2 22049 045.1153 354.5774 5915056 270.0463 066.3959 00.19256975    08

# Worst residual: 1.92 km
# MJD 61022.000000 (2025 Dec 13  0:00)
1992-044A = Geotail = NORAD 22049
1 22049U 92044A   25347.49919926  .00000000  00000-0  00000-0 0 25488
2 22049 045.1123 354.5311 5917364 270.0812 135.6625 00.19261717    04

# Worst residual: 4.02 km
# MJD 61023.000000 (2025 Dec 14  0:00)
1992-044A = Geotail = NORAD 22049
1 22049U 92044A   25348.49919926  .00000000  00000-0  00000-0 0 25489
2 22049 045.1117 354.4903 5918590 270.1148 204.9765 00.19263865    09

# Worst residual: 18.39 km
# MJD 61024.000000 (2025 Dec 15  0:00)
1992-044A = Geotail = NORAD 22049
1 22049U 92044A   25349.49919926  .00000000  00000-0  00000-0 0 25480
2 22049 045.1108 354.4523 5920127 270.0381 274.5592 00.19235699    09

# Worst residual: 61.39 km
# MJD 61025.000000 (2025 Dec 16  0:00)
1992-044A = Geotail = NORAD 22049
1 22049U 92044A   25350.49919926  .00000000  00000-0  00000-0 0 25482
2 22049 045.1351 354.3975 5949050 270.0751 344.0317 00.19122550    05

# Worst residual: 24.43 km
# MJD 61026.000000 (2025 Dec 17  0:00)
1992-044A = Geotail = NORAD 22049
1 22049U 92044A   25351.49919926  .00000000  00000-0  00000-0 0 25483
2 22049 045.1142 354.3989 5928395 270.2994 053.1337 00.19239722    08

# Worst residual: 2.19 km
# MJD 61027.000000 (2025 Dec 18  0:00)
1992-044A = Geotail = NORAD 22049
1 22049U 92044A   25352.49919926  .00000000  00000-0  00000-0 0 25484
2 22049 045.1093 354.3557 5925572 270.2517 122.6418 00.19278404    01

# Worst residual: 3.93 km
# MJD 61028.000000 (2025 Dec 19  0:00)
1992-044A = Geotail = NORAD 22049
1 22049U 92044A   25353.49919926  .00000000  00000-0  00000-0 0 25485
2 22049 045.1118 354.3453 5924335 270.3046 191.8841 00.19273905    07

# Worst residual: 5.58 km
# MJD 61029.000000 (2025 Dec 20  0:00)
1992-044A = Geotail = NORAD 22049
1 22049U 92044A   25354.49919926  .00000000  00000-0  00000-0 0 25486
2 22049 045.1068 354.3313 5921718 270.3220 261.1958 00.19267787    03

# Worst residual: 71.25 km
# MJD 61030.000000 (2025 Dec 21  0:00)
1992-044A = Geotail = NORAD 22049
1 22049U 92044A   25355.49919926  .00000000  00000-0  00000-0 0 25487
2 22049 045.1258 354.2751 5936068 270.2190 330.8072 00.19167235    06

# Worst residual: 84.54 km
# MJD 61031.000000 (2025 Dec 22  0:00)
1992-044A = Geotail = NORAD 22049
1 22049U 92044A   25356.49919926  .00000000  00000-0  00000-0 0 25488
2 22049 045.1238 354.2882 5940230 270.6810 039.5495 00.19102540    08

# Worst residual: 14.27 km
# MJD 61032.000000 (2025 Dec 23  0:00)
1992-044A = Geotail = NORAD 22049
1 22049U 92044A   25357.49919926  .00000000  00000-0  00000-0 0 25489
2 22049 045.1095 354.2329 5914475 270.5153 109.3614 00.19246101    07

# Worst residual: 1.12 km
# MJD 61033.000000 (2025 Dec 24  0:00)
1992-044A = Geotail = NORAD 22049
1 22049U 92044A   25358.49919926  .00000000  00000-0  00000-0 0 25480
2 22049 045.1102 354.2004 5914801 270.4759 178.8457 00.19261917    08

# Worst residual: 5.33 km
# MJD 61034.000000 (2025 Dec 25  0:00)
1992-044A = Geotail = NORAD 22049
1 22049U 92044A   25359.49919926  .00000000  00000-0  00000-0 0 25481
2 22049 045.1098 354.1581 5913966 270.5549 248.0260 00.19265746    06

# Worst residual: 8.78 km
# MJD 61035.000000 (2025 Dec 26  0:00)
1992-044A = Geotail = NORAD 22049
1 22049U 92044A   25360.49919926  .00000000  00000-0  00000-0 0 25483
2 22049 045.1162 354.1060 5908564 270.6567 317.1812 00.19288310    02

# Worst residual: 12.58 km
# MJD 61036.000000 (2025 Dec 27  0:00)
1992-044A = Geotail = NORAD 22049
1 22049U 92044A   25361.49919926  .00000000  00000-0  00000-0 0 25484
2 22049 045.1221 354.0862 5907018 270.6432 026.5537 00.19288613    02

# Worst residual: 12.11 km
# MJD 61037.000000 (2025 Dec 28  0:00)
1992-044A = Geotail = NORAD 22049
1 22049U 92044A   25362.49919926  .00000000  00000-0  00000-0 0 25485
2 22049 045.1013 354.0257 5920125 270.5999 095.8722 00.19291951    04

# Worst residual: 4.94 km
# MJD 61038.000000 (2025 Dec 29  0:00)
1992-044A = Geotail = NORAD 22049
1 22049U 92044A   25363.49919926  .00000000  00000-0  00000-0 0 25486
2 22049 045.0950 353.9610 5931479 270.5760 165.4249 00.19320071    08

# Worst residual: 11.49 km
# MJD 61039.000000 (2025 Dec 30  0:00)
1992-044A = Geotail = NORAD 22049
1 22049U 92044A   25364.49919926  .00000000  00000-0  00000-0 0 25487
2 22049 045.0935 353.9225 5933730 270.5332 235.1849 00.19317161    07

# Worst residual: 33.81 km
# MJD 61040.000000 (2025 Dec 31  0:00)
1992-044A = Geotail = NORAD 22049
1 22049U 92044A   25365.49919926  .00000000  00000-0  00000-0 0 25488
2 22049 045.0942 353.8853 5940852 270.3178 305.1744 00.19227598    06
